[{"OBJECT_NAME":"ONEWEB-0625","OBJECT_ID":"2023-004AC","EPOCH":"2026-03-09T20:02:59.294400","MEAN_MOTION":13.17649415,"ECCENTRICITY":0.00017641,"INCLINATION":87.9151,"RA_OF_ASC_NODE":25.6036,"ARG_OF_PERICENTER":86.6046,"MEAN_ANOMALY":273.5288,"EPHEMERIS_TYPE":0,"CLASSIFICATION_TYPE":"U","NORAD_CAT_ID":55166,"ELEMENT_SET_NO":999,"REV_AT_EPOCH":15449,"BSTAR":-1.2961049e-5,"MEAN_MOTION_DOT":8.0e-8,"MEAN_MOTION_DDOT":0},{"OBJECT_NAME":"THORAD AGENA D DEB","OBJECT_ID":"1970-025MQ","EPOCH":"2026-03-09T15:37:54.017760","MEAN_MOTION":12.93225109,"ECCENTRICITY":0.012376,"INCLINATION":101.6496,"RA_OF_ASC_NODE":316.6245,"ARG_OF_PERICENTER":103.1879,"MEAN_ANOMALY":314.8174,"EPHEMERIS_TYPE":0,"CLASSIFICATION_TYPE":"U","NORAD_CAT_ID":5967,"ELEMENT_SET_NO":999,"REV_AT_EPOCH":62558,"BSTAR":0.000964,"MEAN_MOTION_DOT":2.24e-6,"MEAN_MOTION_DDOT":0}]
